{"type":"FeatureCollection", "features": [
{"type":"Feature","geometry":{"type":"Polygon","coordinates":[[[13.3498,46.2268],[13.3381,46.2327],[13.3236,46.2361],[13.309,46.2476],[13.301,46.2506],[13.2994,46.2557],[13.2955,46.2587],[13.2908,46.2577],[13.2851,46.2488],[13.27,46.2435],[13.2577,46.2506],[13.2454,46.2589],[13.2356,46.2642],[13.2381,46.2672],[13.2136,46.2801],[13.1985,46.2853],[13.2023,46.295],[13.2063,46.2972],[13.2152,46.2958],[13.2268,46.2966],[13.2366,46.3026],[13.2394,46.3102],[13.2468,46.3178],[13.2399,46.3207],[13.2094,46.3251],[13.1724,46.3241],[13.1634,46.3215],[13.1467,46.3151],[13.1348,46.3136],[13.1211,46.3132],[13.1127,46.3011],[13.1043,46.2957],[13.0957,46.2835],[13.0856,46.277],[13.0677,46.2632],[13.0598,46.2612],[13.0427,46.2488],[13.0397,46.2441],[13.0378,46.2329],[13.0358,46.2244],[13.0252,46.2187],[13.0051,46.2117],[13.0059,46.2104],[12.9732,46.2008],[12.9652,46.1949],[12.957,46.2036],[12.9524,46.2041],[12.9377,46.2119],[12.9231,46.2091],[12.8993,46.2152],[12.8842,46.2286],[12.8762,46.2402],[12.8662,46.247],[12.8577,46.2507],[12.8493,46.2515],[12.841,46.2485],[12.831,46.2459],[12.8179,46.2486],[12.8109,46.2535],[12.7999,46.2539],[12.7701,46.2508],[12.7643,46.2485],[12.7601,46.2388],[12.7503,46.2399],[12.7417,46.2373],[12.7318,46.2389],[12.7305,46.2291],[12.7351,46.2219],[12.7407,46.2178],[12.7498,46.2179],[12.7597,46.2197],[12.7724,46.2174],[12.773,46.2139],[12.7634,46.2047],[12.758,46.1954],[12.75,46.1977],[12.7329,46.188],[12.7314,46.1851],[12.7207,46.1919],[12.6765,46.187],[12.6703,46.1906],[12.6681,46.1946],[12.6571,46.201],[12.6559,46.1969],[12.6453,46.1899],[12.6382,46.1786],[12.6147,46.1842],[12.6057,46.1896],[12.5927,46.1907],[12.5946,46.1887],[12.6034,46.188],[12.6045,46.1843],[12.5946,46.1717],[12.5916,46.1648],[12.5772,46.1555],[12.5645,46.146],[12.5566,46.1454],[12.5408,46.1473],[12.5346,46.1457],[12.5286,46.138],[12.5226,46.1324],[12.5038,46.1277],[12.4972,46.1298],[12.4917,46.1241],[12.4941,46.1209],[12.4889,46.1144],[12.4853,46.1065],[12.476,46.1003],[12.4724,46.096],[12.4547,46.0887],[12.4356,46.0831],[12.4278,46.0763],[12.4241,46.0682],[12.4161,46.0595],[12.4099,46.0591],[12.4066,46.0513],[12.4051,46.0427],[12.4003,46.042],[12.402,46.0384],[12.4106,46.0319],[12.4153,46.0269],[12.4149,46.02],[12.4182,46.0148],[12.4188,46.0086],[12.4268,45.9964],[12.4271,45.9847],[12.4257,45.9667],[12.4227,45.9558],[12.4261,45.947],[12.4326,45.9454],[12.4529,45.9471],[12.4557,45.9461],[12.4566,45.9423],[12.4639,45.9368],[12.4669,45.932],[12.479,45.9269],[12.4863,45.9258],[12.5008,45.9252],[12.5079,45.9199],[12.5057,45.916],[12.5097,45.9094],[12.5158,45.9041],[12.5232,45.9031],[12.5181,45.8999],[12.5083,45.897],[12.5231,45.8861],[12.5273,45.8849],[12.5326,45.8803],[12.5355,45.8693],[12.5311,45.8631],[12.5449,45.8626],[12.5496,45.8607],[12.5571,45.8472],[12.5573,45.843],[12.5499,45.8395],[12.5534,45.8363],[12.5546,45.8294],[12.5593,45.8259],[12.5645,45.8292],[12.5688,45.8271],[12.5729,45.8244],[12.5824,45.8233],[12.5876,45.8153],[12.5957,45.8168],[12.5924,45.8201],[12.5974,45.8221],[12.5944,45.8308],[12.6057,45.8382],[12.6113,45.8327],[12.624,45.8288],[12.6315,45.8248],[12.6376,45.8181],[12.6462,45.8206],[12.6507,45.8116],[12.654,45.8095],[12.6497,45.8019],[12.6574,45.7974],[12.6617,45.7924],[12.669,45.7909],[12.6744,45.7921],[12.695,45.8063],[12.6996,45.8113],[12.7125,45.8208],[12.7193,45.8275],[12.7289,45.8366],[12.7324,45.8366],[12.7372,45.8307],[12.7438,45.8271],[12.7508,45.8318],[12.7668,45.847],[12.7689,45.8498],[12.7798,45.8544],[12.7895,45.8488],[12.8033,45.845],[12.7991,45.8332],[12.8019,45.8229],[12.8094,45.8204],[12.8188,45.825],[12.8189,45.8337],[12.8291,45.8364],[12.8376,45.8413],[12.8369,45.845],[12.8435,45.8478],[12.8612,45.8506],[12.8725,45.8484],[12.8772,45.8432],[12.8697,45.8338],[12.8901,45.8205],[12.8933,45.8197],[12.902,45.8271],[12.9078,45.8291],[12.9153,45.8249],[12.9205,45.8313],[12.9295,45.8174],[12.9419,45.8203],[12.9521,45.8222],[12.951,45.8292],[12.952,45.8435],[12.9578,45.8474],[12.9614,45.8469],[12.9663,45.8408],[12.979,45.834],[12.9709,45.8287],[12.9742,45.8234],[12.9821,45.8273],[12.9814,45.8249],[12.9739,45.8227],[12.9798,45.8185],[12.9866,45.8184],[12.9932,45.815],[12.9906,45.8094],[12.9852,45.8105],[12.9835,45.8149],[12.9787,45.8146],[12.9747,45.808],[12.9808,45.7975],[12.9892,45.7958],[13.0086,45.7947],[13.0136,45.7955],[13.029,45.803],[13.0337,45.7947],[13.0269,45.7937],[13.0301,45.7846],[13.0313,45.7746],[13.0461,45.7451],[13.053,45.7378],[13.061,45.7345],[13.0599,45.73],[13.0556,45.7272],[13.0543,45.7197],[13.0624,45.7159],[13.0706,45.714],[13.0732,45.7135],[13.0872,45.7191],[13.0907,45.7266],[13.0924,45.7342],[13.1051,45.736],[13.1035,45.738],[13.0923,45.7415],[13.096,45.7487],[13.1063,45.7474],[13.1097,45.7511],[13.1089,45.7564],[13.1135,45.7601],[13.1235,45.7631],[13.1308,45.7718],[13.1431,45.7723],[13.1713,45.768],[13.1825,45.7649],[13.1822,45.7726],[13.1917,45.7737],[13.2002,45.7672],[13.2052,45.7661],[13.2112,45.7676],[13.2157,45.7723],[13.2218,45.7718],[13.2266,45.756],[13.2351,45.7534],[13.2416,45.7569],[13.2438,45.757],[13.2501,45.7564],[13.2528,45.7637],[13.257,45.7682],[13.2691,45.7751],[13.2848,45.7763],[13.2956,45.7805],[13.3011,45.7809],[13.3022,45.7845],[13.318,45.788],[13.3174,45.7917],[13.3112,45.8003],[13.3131,45.8069],[13.3245,45.8111],[13.3401,45.8082],[13.3467,45.806],[13.35,45.8001],[13.3598,45.8026],[13.3726,45.8096],[13.368,45.7943],[13.3763,45.7938],[13.3919,45.8002],[13.3916,45.7948],[13.3868,45.7793],[13.3993,45.7536],[13.4076,45.7519],[13.4187,45.7424],[13.4228,45.7441],[13.4297,45.7434],[13.4533,45.7475],[13.4611,45.7497],[13.4608,45.7525],[13.4588,45.7503],[13.4496,45.748],[13.4436,45.7545],[13.4334,45.76],[13.4261,45.7552],[13.4197,45.7575],[13.4257,45.765],[13.428,45.7716],[13.4376,45.7791],[13.4403,45.7857],[13.4282,45.8087],[13.4344,45.8102],[13.4433,45.8156],[13.4625,45.8213],[13.4618,45.8256],[13.4691,45.8256],[13.4738,45.8183],[13.4961,45.8101],[13.5054,45.8104],[13.5077,45.8127],[13.5084,45.8196],[13.5198,45.8208],[13.5351,45.8166],[13.5415,45.82],[13.5571,45.8208],[13.5138,45.8528],[13.4887,45.8402],[13.4762,45.8431],[13.4762,45.8486],[13.4727,45.8519],[13.4729,45.8601],[13.467,45.8657],[13.4698,45.8682],[13.4749,45.874],[13.4823,45.8782],[13.4983,45.8817],[13.5147,45.8898],[13.5302,45.8969],[13.5419,45.8985],[13.5532,45.8989],[13.5569,45.9086],[13.5731,45.9154],[13.5889,45.9186],[13.5838,45.9114],[13.5865,45.9097],[13.6098,45.9066],[13.6136,45.9075],[13.6276,45.9256],[13.6363,45.934],[13.6346,45.9539],[13.642,45.9823],[13.6345,45.9888],[13.6204,45.9838],[13.6059,45.9855],[13.6042,45.9867],[13.5935,45.9895],[13.5851,45.988],[13.5764,45.9801],[13.5687,45.9692],[13.5563,45.9693],[13.5427,45.9647],[13.5306,45.9664],[13.5261,45.972],[13.5159,45.9778],[13.5003,45.9818],[13.4948,45.9862],[13.488,45.9962],[13.4762,46.0063],[13.4799,46.0115],[13.4909,46.0142],[13.497,46.0177],[13.5067,46.0323],[13.51,46.0462],[13.4981,46.0476],[13.497,46.0514],[13.4968,46.057],[13.501,46.0617],[13.513,46.0621],[13.5299,46.0677],[13.5433,46.0807],[13.5526,46.084],[13.5721,46.0886],[13.583,46.0997],[13.5946,46.1037],[13.6025,46.113],[13.5963,46.1169],[13.5847,46.1106],[13.5771,46.1086],[13.5704,46.1087],[13.5455,46.0937],[13.5379,46.0933],[13.5336,46.0971],[13.5183,46.0953],[13.5099,46.0993],[13.5156,46.1036],[13.5051,46.1137],[13.4971,46.1148],[13.4959,46.1189],[13.5038,46.1201],[13.5121,46.1241],[13.511,46.1274],[13.5144,46.1381],[13.5298,46.146],[13.5359,46.1467],[13.5275,46.1536],[13.5237,46.1608],[13.5312,46.1649],[13.5328,46.1719],[13.5312,46.1752],[13.5177,46.1799],[13.5154,46.1703],[13.5121,46.1655],[13.5065,46.1676],[13.496,46.1657],[13.4869,46.1557],[13.4859,46.1459],[13.4826,46.1423],[13.4689,46.1333],[13.4599,46.1354],[13.4588,46.1431],[13.454,46.1518],[13.4478,46.1598],[13.4444,46.1732],[13.4364,46.1813],[13.4277,46.1938],[13.4235,46.2063],[13.4108,46.2123],[13.4049,46.2141],[13.3876,46.2107],[13.3862,46.2153],[13.3707,46.2197],[13.3628,46.221],[13.3564,46.2268],[13.3498,46.2268]]]},"properties":{"area":"colline-pianura","n_comuni":138}},
{"type":"Feature","geometry":{"type":"MultiPolygon","coordinates":[[[[13.1211,46.3132],[13.1348,46.3136],[13.1467,46.3151],[13.1634,46.3215],[13.1724,46.3241],[13.2094,46.3251],[13.2399,46.3207],[13.2468,46.3178],[13.2394,46.3102],[13.2366,46.3026],[13.2268,46.2966],[13.2152,46.2958],[13.2063,46.2972],[13.2023,46.295],[13.1985,46.2853],[13.2136,46.2801],[13.2381,46.2672],[13.2356,46.2642],[13.2454,46.2589],[13.2577,46.2506],[13.27,46.2435],[13.2851,46.2488],[13.2908,46.2577],[13.2955,46.2587],[13.2994,46.2557],[13.301,46.2506],[13.309,46.2476],[13.3236,46.2361],[13.3381,46.2327],[13.3498,46.2268],[13.3564,46.2268],[13.3628,46.221],[13.3707,46.2197],[13.3862,46.2153],[13.3876,46.2107],[13.4049,46.2141],[13.4108,46.2123],[13.4099,46.2168],[13.4142,46.225],[13.4212,46.2309],[13.4225,46.2343],[13.4093,46.2406],[13.4061,46.2434],[13.3969,46.2581],[13.3929,46.2708],[13.3916,46.2798],[13.3837,46.2906],[13.3793,46.2893],[13.3766,46.2948],[13.3755,46.2982],[13.4028,46.3],[13.4112,46.3058],[13.416,46.3112],[13.4181,46.3182],[13.4257,46.3226],[13.4342,46.322],[13.4405,46.3248],[13.4473,46.3304],[13.447,46.3375],[13.4371,46.3552],[13.439,46.3602],[13.4479,46.3628],[13.4595,46.363],[13.4671,46.3609],[13.4757,46.3635],[13.482,46.369],[13.4882,46.3699],[13.5163,46.3768],[13.5169,46.383],[13.5224,46.3849],[13.533,46.3856],[13.5695,46.4017],[13.5768,46.4089],[13.5785,46.4241],[13.5822,46.4299],[13.5986,46.439],[13.6134,46.44],[13.6404,46.4444],[13.6475,46.446],[13.6541,46.4423],[13.6842,46.4374],[13.6937,46.444],[13.6974,46.4543],[13.6946,46.4682],[13.7053,46.4773],[13.7077,46.4828],[13.7038,46.4881],[13.7025,46.4988],[13.7035,46.5013],[13.7163,46.5083],[13.7173,46.5132],[13.7139,46.5231],[13.6892,46.5215],[13.6747,46.5233],[13.6377,46.5362],[13.6271,46.5415],[13.5912,46.5456],[13.5861,46.544],[13.5835,46.54],[13.5771,46.538],[13.5699,46.5389],[13.569,46.5448],[13.5641,46.5505],[13.5424,46.5536],[13.5199,46.547],[13.5154,46.5483],[13.5071,46.5584],[13.5041,46.5661],[13.4983,46.5655],[13.4756,46.5584],[13.4273,46.5576],[13.4079,46.5616],[13.4084,46.5701],[13.4058,46.5721],[13.3728,46.5794],[13.3695,46.575],[13.3684,46.5685],[13.3639,46.5701],[13.3463,46.5688],[13.3391,46.5651],[13.3205,46.5521],[13.3095,46.5539],[13.3007,46.5586],[13.2666,46.5601],[13.248,46.5585],[13.2374,46.5532],[13.2325,46.5536],[13.2322,46.5593],[13.228,46.5627],[13.2148,46.5701],[13.2018,46.5719],[13.1969,46.5716],[13.1824,46.5772],[13.1692,46.586],[13.1637,46.5886],[13.1427,46.589],[13.1314,46.5914],[13.1081,46.5951],[13.0941,46.5989],[13.082,46.6004],[13.0566,46.5975],[13.0445,46.5958],[13.0276,46.598],[13.0233,46.6014],[13.0019,46.6021],[12.9877,46.5994],[12.9576,46.606],[12.9496,46.6029],[12.9346,46.6083],[12.9222,46.6091],[12.8947,46.6086],[12.8883,46.6069],[12.8677,46.6092],[12.8573,46.6054],[12.852,46.6051],[12.8378,46.6082],[12.8337,46.6107],[12.834,46.6209],[12.8373,46.6274],[12.8309,46.6306],[12.8175,46.6292],[12.8029,46.6338],[12.7916,46.643],[12.7746,46.6468],[12.7619,46.6478],[12.7507,46.6451],[12.7453,46.6397],[12.732,46.6338],[12.7274,46.6304],[12.7114,46.6256],[12.7047,46.6184],[12.7078,46.602],[12.6902,46.6006],[12.6845,46.5975],[12.6746,46.5852],[12.6668,46.5817],[12.657,46.5728],[12.646,46.574],[12.6436,46.5758],[12.6369,46.572],[12.6287,46.5606],[12.6202,46.5438],[12.6192,46.54],[12.6215,46.5265],[12.6306,46.5122],[12.6316,46.5069],[12.6301,46.5008],[12.645,46.4888],[12.6521,46.4851],[12.6566,46.4814],[12.6624,46.468],[12.6561,46.4653],[12.649,46.4666],[12.6423,46.4723],[12.6334,46.4744],[12.6208,46.4754],[12.6168,46.4737],[12.6068,46.4643],[12.5948,46.4708],[12.5878,46.4726],[12.5682,46.4757],[12.5483,46.4639],[12.5417,46.4584],[12.5368,46.4597],[12.531,46.4649],[12.5271,46.4595],[12.5281,46.4528],[12.5248,46.4486],[12.5162,46.4467],[12.5046,46.44],[12.4993,46.4343],[12.4939,46.4261],[12.4943,46.4187],[12.4987,46.4122],[12.4894,46.4087],[12.479,46.4005],[12.4691,46.39],[12.4642,46.3884],[12.455,46.3917],[12.4609,46.3786],[12.4611,46.3693],[12.4421,46.3597],[12.4287,46.3516],[12.4174,46.3549],[12.4192,46.3526],[12.4212,46.3426],[12.4123,46.3323],[12.4029,46.3294],[12.3981,46.3285],[12.3827,46.3301],[12.3745,46.3293],[12.3714,46.3261],[12.3633,46.3248],[12.3547,46.3197],[12.3556,46.3094],[12.3514,46.2938],[12.3481,46.2924],[12.3393,46.2854],[12.329,46.2828],[12.3209,46.2689],[12.324,46.2562],[12.33,46.2539],[12.3339,46.2474],[12.341,46.2402],[12.3523,46.2363],[12.3555,46.2312],[12.3657,46.2293],[12.3723,46.224],[12.3764,46.2229],[12.3906,46.2281],[12.4017,46.229],[12.4087,46.2223],[12.4003,46.2113],[12.4073,46.207],[12.4252,46.2091],[12.4465,46.2078],[12.4425,46.1994],[12.4465,46.1866],[12.447,46.1803],[12.4562,46.1718],[12.4628,46.1676],[12.4899,46.1572],[12.4954,46.1505],[12.4986,46.1385],[12.497,46.1329],[12.4972,46.1298],[12.5038,46.1277],[12.5226,46.1324],[12.5286,46.138],[12.5346,46.1457],[12.5408,46.1473],[12.5566,46.1454],[12.5645,46.146],[12.5772,46.1555],[12.5916,46.1648],[12.5946,46.1717],[12.6045,46.1843],[12.6034,46.188],[12.5946,46.1887],[12.5927,46.1907],[12.6057,46.1896],[12.6147,46.1842],[12.6382,46.1786],[12.6453,46.1899],[12.6559,46.1969],[12.6571,46.201],[12.6681,46.1946],[12.6703,46.1906],[12.6765,46.187],[12.7207,46.1919],[12.7314,46.1851],[12.7329,46.188],[12.75,46.1977],[12.758,46.1954],[12.7634,46.2047],[12.773,46.2139],[12.7724,46.2174],[12.7597,46.2197],[12.7498,46.2179],[12.7407,46.2178],[12.7351,46.2219],[12.7305,46.2291],[12.7318,46.2389],[12.7417,46.2373],[12.7503,46.2399],[12.7601,46.2388],[12.7643,46.2485],[12.7701,46.2508],[12.7999,46.2539],[12.8109,46.2535],[12.8179,46.2486],[12.831,46.2459],[12.841,46.2485],[12.8493,46.2515],[12.8577,46.2507],[12.8662,46.247],[12.8762,46.2402],[12.8842,46.2286],[12.8993,46.2152],[12.9231,46.2091],[12.9377,46.2119],[12.9524,46.2041],[12.957,46.2036],[12.9652,46.1949],[12.9732,46.2008],[13.0059,46.2104],[13.0051,46.2117],[13.0252,46.2187],[13.0358,46.2244],[13.0378,46.2329],[13.0397,46.2441],[13.0427,46.2488],[13.0598,46.2612],[13.0677,46.2632],[13.0856,46.277],[13.0957,46.2835],[13.1043,46.2957],[13.1127,46.3011],[13.1211,46.3132]]],[[[13.6145,46.1844],[13.5948,46.1886],[13.5902,46.1881],[13.5855,46.1903],[13.5782,46.1855],[13.5737,46.1844],[13.5651,46.1878],[13.5661,46.1944],[13.5612,46.2043],[13.5464,46.2116],[13.5388,46.2135],[13.5294,46.2123],[13.5295,46.217],[13.5139,46.215],[13.503,46.2157],[13.4979,46.2175],[13.4955,46.2222],[13.4844,46.2246],[13.4558,46.2262],[13.4449,46.2238],[13.4482,46.2162],[13.4463,46.2128],[13.4326,46.21],[13.4235,46.2063],[13.4277,46.1938],[13.4364,46.1813],[13.4444,46.1732],[13.4478,46.1598],[13.454,46.1518],[13.4588,46.1431],[13.4599,46.1354],[13.4689,46.1333],[13.4826,46.1423],[13.4859,46.1459],[13.4869,46.1557],[13.496,46.1657],[13.5065,46.1676],[13.5121,46.1655],[13.5154,46.1703],[13.5177,46.1799],[13.5312,46.1752],[13.5328,46.1719],[13.5312,46.1649],[13.5237,46.1608],[13.5275,46.1536],[13.5359,46.1467],[13.5298,46.146],[13.5144,46.1381],[13.511,46.1274],[13.5121,46.1241],[13.5038,46.1201],[13.4959,46.1189],[13.4971,46.1148],[13.5051,46.1137],[13.5156,46.1036],[13.5099,46.0993],[13.5183,46.0953],[13.5336,46.0971],[13.5379,46.0933],[13.5455,46.0937],[13.5704,46.1087],[13.5771,46.1086],[13.5847,46.1106],[13.5963,46.1169],[13.6025,46.113],[13.6219,46.1231],[13.6344,46.1346],[13.6396,46.1346],[13.6469,46.1404],[13.6521,46.1484],[13.6537,46.158],[13.6549,46.1624],[13.6642,46.1709],[13.6632,46.1801],[13.6457,46.1883],[13.6351,46.1898],[13.6271,46.1888],[13.6145,46.1844]]]]},"properties":{"area":"montagna","n_comuni":58}},
{"type":"Feature","geometry":{"type":"Polygon","coordinates":[[[13.368,45.7943],[13.3726,45.8096],[13.3598,45.8026],[13.35,45.8001],[13.3467,45.806],[13.3401,45.8082],[13.3245,45.8111],[13.3131,45.8069],[13.3112,45.8003],[13.3174,45.7917],[13.318,45.788],[13.3022,45.7845],[13.3011,45.7809],[13.2956,45.7805],[13.2848,45.7763],[13.2691,45.7751],[13.257,45.7682],[13.2528,45.7637],[13.2501,45.7564],[13.2438,45.757],[13.2416,45.7569],[13.2351,45.7534],[13.2266,45.756],[13.2218,45.7718],[13.2157,45.7723],[13.2112,45.7676],[13.2052,45.7661],[13.2002,45.7672],[13.1917,45.7737],[13.1822,45.7726],[13.1825,45.7649],[13.1713,45.768],[13.1431,45.7723],[13.1308,45.7718],[13.1235,45.7631],[13.1135,45.7601],[13.1089,45.7564],[13.1097,45.7511],[13.1063,45.7474],[13.096,45.7487],[13.0923,45.7415],[13.1035,45.738],[13.1051,45.736],[13.0924,45.7342],[13.0907,45.7266],[13.0872,45.7191],[13.0732,45.7135],[13.0706,45.714],[13.0624,45.7159],[13.0543,45.7197],[13.0556,45.7272],[13.0599,45.73],[13.061,45.7345],[13.053,45.7378],[13.0461,45.7451],[13.0313,45.7746],[13.0301,45.7846],[13.0269,45.7937],[13.0337,45.7947],[13.029,45.803],[13.0136,45.7955],[13.0086,45.7947],[12.9892,45.7958],[12.9789,45.7928],[12.9778,45.7879],[12.9889,45.7763],[13.0061,45.7659],[13.0059,45.7607],[13.0019,45.7573],[13.0012,45.7493],[13.0067,45.7448],[13.0157,45.7413],[13.0157,45.7353],[13.008,45.731],[13.0077,45.7261],[13.0158,45.7251],[13.0164,45.7306],[13.0265,45.7368],[13.029,45.7351],[13.0302,45.7253],[13.0385,45.7172],[13.0406,45.706],[13.0368,45.6994],[13.045,45.6938],[13.0484,45.6968],[13.0532,45.6945],[13.0489,45.6874],[13.0444,45.6843],[13.056,45.6777],[13.0625,45.6792],[13.0669,45.6709],[13.0619,45.6629],[13.0654,45.6556],[13.0744,45.6591],[13.0843,45.6573],[13.0834,45.6503],[13.0935,45.6477],[13.1008,45.6434],[13.1045,45.6547],[13.1093,45.6629],[13.1172,45.6695],[13.1472,45.6886],[13.153,45.6949],[13.1528,45.6978],[13.1567,45.7027],[13.171,45.7031],[13.1858,45.7112],[13.2079,45.7128],[13.2445,45.7133],[13.2458,45.7195],[13.2555,45.7084],[13.2613,45.707],[13.2753,45.7067],[13.2906,45.7045],[13.3015,45.6969],[13.3232,45.6874],[13.3431,45.6805],[13.3516,45.679],[13.3592,45.6821],[13.3677,45.6828],[13.3857,45.6748],[13.406,45.6773],[13.4242,45.6767],[13.4333,45.6787],[13.4325,45.6816],[13.4425,45.6865],[13.4549,45.6905],[13.4602,45.6941],[13.4679,45.7027],[13.4726,45.7042],[13.4868,45.7046],[13.5005,45.7098],[13.5159,45.7175],[13.5306,45.7233],[13.5507,45.7233],[13.5535,45.7261],[13.5536,45.7294],[13.5345,45.7363],[13.5256,45.7371],[13.5172,45.7436],[13.5232,45.7507],[13.5207,45.7576],[13.5208,45.7629],[13.528,45.7719],[13.5373,45.7803],[13.5321,45.7858],[13.5435,45.7917],[13.5486,45.7922],[13.5569,45.7825],[13.5619,45.7784],[13.5727,45.7762],[13.5799,45.777],[13.5809,45.7818],[13.5771,45.793],[13.5848,45.7976],[13.5834,45.8011],[13.5779,45.8042],[13.5658,45.8078],[13.5571,45.8208],[13.5415,45.82],[13.5351,45.8166],[13.5198,45.8208],[13.5084,45.8196],[13.5077,45.8127],[13.5054,45.8104],[13.4961,45.8101],[13.4738,45.8183],[13.4691,45.8256],[13.4618,45.8256],[13.4625,45.8213],[13.4433,45.8156],[13.4344,45.8102],[13.4282,45.8087],[13.4403,45.7857],[13.4376,45.7791],[13.428,45.7716],[13.4257,45.765],[13.4197,45.7575],[13.4261,45.7552],[13.4334,45.76],[13.4436,45.7545],[13.4496,45.748],[13.4588,45.7503],[13.4608,45.7525],[13.4611,45.7497],[13.4533,45.7475],[13.4297,45.7434],[13.4228,45.7441],[13.4187,45.7424],[13.4076,45.7519],[13.3993,45.7536],[13.3868,45.7793],[13.3916,45.7948],[13.3919,45.8002],[13.3763,45.7938],[13.368,45.7943]]]},"properties":{"area":"costa-laguna","n_comuni":9}},
{"type":"Feature","geometry":{"type":"Polygon","coordinates":[[[13.5834,45.8011],[13.5848,45.7976],[13.5771,45.793],[13.5809,45.7818],[13.5833,45.7798],[13.599,45.7728],[13.6162,45.771],[13.631,45.7681],[13.6436,45.7563],[13.6684,45.7416],[13.677,45.737],[13.7015,45.7174],[13.7118,45.7105],[13.712,45.7053],[13.7184,45.7015],[13.733,45.6964],[13.7445,45.6881],[13.7534,45.6805],[13.753,45.6775],[13.7625,45.6596],[13.7693,45.653],[13.76,45.6467],[13.7547,45.65],[13.7487,45.644],[13.7473,45.6395],[13.7561,45.6363],[13.7592,45.6324],[13.766,45.6305],[13.7666,45.6368],[13.7767,45.6339],[13.7739,45.6298],[13.7738,45.6238],[13.7762,45.6193],[13.7839,45.613],[13.8047,45.6096],[13.8074,45.6069],[13.8045,45.6094],[13.7974,45.6066],[13.796,45.6041],[13.7856,45.5989],[13.7796,45.5995],[13.7729,45.6045],[13.7568,45.6081],[13.7395,45.6096],[13.7311,45.6088],[13.7201,45.6058],[13.7198,45.6005],[13.7231,45.5948],[13.746,45.5978],[13.7625,45.5918],[13.781,45.5841],[13.7897,45.5826],[13.8105,45.5809],[13.8217,45.5817],[13.8387,45.5825],[13.8494,45.5848],[13.8547,45.5929],[13.8616,45.5956],[13.8683,45.6051],[13.8741,45.6104],[13.8815,45.613],[13.9069,45.6251],[13.9181,45.6311],[13.9189,45.6336],[13.9031,45.6426],[13.8984,45.6435],[13.8913,45.6459],[13.8792,45.652],[13.8581,45.6657],[13.8449,45.6806],[13.8355,45.6861],[13.8326,45.6896],[13.831,45.6927],[13.8349,45.7008],[13.8337,45.7072],[13.8271,45.7143],[13.8113,45.7228],[13.8039,45.7312],[13.7998,45.7397],[13.7893,45.7461],[13.7836,45.7482],[13.7744,45.7488],[13.7554,45.7555],[13.7463,45.7552],[13.7359,45.7596],[13.7371,45.7617],[13.73,45.7666],[13.7212,45.7692],[13.7046,45.7771],[13.6877,45.7892],[13.6705,45.7982],[13.6565,45.8001],[13.6373,45.7982],[13.6233,45.7982],[13.6107,45.8028],[13.6033,45.8042],[13.5963,45.8079],[13.5949,45.8212],[13.5893,45.8313],[13.5792,45.8406],[13.5745,45.8431],[13.5736,45.8492],[13.5806,45.8572],[13.584,45.8649],[13.591,45.8732],[13.5903,45.8883],[13.5999,45.8953],[13.6089,45.8992],[13.6136,45.9075],[13.6098,45.9066],[13.5865,45.9097],[13.5838,45.9114],[13.5889,45.9186],[13.5731,45.9154],[13.5569,45.9086],[13.5532,45.8989],[13.5419,45.8985],[13.5302,45.8969],[13.5147,45.8898],[13.4983,45.8817],[13.4823,45.8782],[13.4749,45.874],[13.4698,45.8682],[13.467,45.8657],[13.4729,45.8601],[13.4727,45.8519],[13.4762,45.8486],[13.4762,45.8431],[13.4887,45.8402],[13.5138,45.8528],[13.5571,45.8208],[13.5658,45.8078],[13.5779,45.8042],[13.5834,45.8011]]]},"properties":{"area":"carso-trieste","n_comuni":10}}
]}