{"type":"FeatureCollection", "features": [
{"type":"Feature","geometry":{"type":"LineString","coordinates":[[12.978,45.627],[12.968,45.622],[12.96,45.622],[12.944,45.619],[12.917,45.612],[12.912,45.614],[12.906,45.612],[12.9,45.606]]},"properties":{"COD_RIP":2,"COD_REG":5,"COD_PROV":27,"COD_CM":227,"COD_UTS":227,"PRO_COM":27005,"COMUNE":"Caorle","SHAPE_Leng":23017.6672797}},
{"type":"Feature","geometry":{"type":"LineString","coordinates":[[13.101,45.643],[13.102,45.639],[13.098,45.635],[13.091,45.635],[13.078,45.633],[13.062,45.631],[13.028,45.629],[13.002,45.627],[12.978,45.623],[12.978,45.627]]},"properties":{"COD_RIP":2,"COD_REG":5,"COD_PROV":27,"COD_CM":227,"COD_UTS":227,"PRO_COM":27034,"COMUNE":"San Michele al Tagliamento","SHAPE_Leng":11078.077952}},
{"type":"Feature","geometry":{"type":"LineString","coordinates":[[13.153,45.698],[13.151,45.692],[13.144,45.686],[13.117,45.67],[13.109,45.663],[13.104,45.653],[13.101,45.643]]},"properties":{"COD_RIP":2,"COD_REG":6,"COD_PROV":30,"COD_CM":0,"COD_UTS":30,"PRO_COM":30049,"COMUNE":"Lignano Sabbiadoro","SHAPE_Leng":8057.15371972}},
{"type":"Feature","geometry":{"type":"LineString","coordinates":[[13.246,45.72],[13.245,45.713],[13.208,45.713],[13.192,45.711],[13.184,45.712],[13.178,45.709],[13.178,45.706],[13.168,45.703],[13.157,45.703],[13.152,45.701],[13.153,45.698]]},"properties":{"COD_RIP":2,"COD_REG":6,"COD_PROV":30,"COD_CM":0,"COD_UTS":30,"PRO_COM":30056,"COMUNE":"Marano Lagunare","SHAPE_Leng":10485.2650879}},
{"type":"Feature","geometry":{"type":"LineString","coordinates":[[13.554,45.726],[13.552,45.724],[13.543,45.724],[13.535,45.723],[13.531,45.723],[13.516,45.718],[13.506,45.712],[13.486,45.704],[13.473,45.704],[13.463,45.701],[13.46,45.694],[13.454,45.69],[13.444,45.687],[13.438,45.683],[13.434,45.682],[13.433,45.678],[13.428,45.676],[13.423,45.677],[13.408,45.678],[13.396,45.676],[13.385,45.675],[13.381,45.679],[13.368,45.682],[13.367,45.684],[13.359,45.682],[13.352,45.679],[13.343,45.681],[13.323,45.687],[13.315,45.692],[13.303,45.697],[13.295,45.7],[13.292,45.704],[13.275,45.707],[13.261,45.707],[13.256,45.708],[13.253,45.714],[13.248,45.715],[13.246,45.72]]},"properties":{"COD_RIP":2,"COD_REG":6,"COD_PROV":31,"COD_CM":0,"COD_UTS":31,"PRO_COM":31009,"COMUNE":"Grado","SHAPE_Leng":37373.3281175}},
{"type":"Feature","geometry":{"type":"LineString","coordinates":[[13.581,45.782],[13.579,45.775],[13.562,45.778],[13.564,45.782],[13.562,45.784],[13.557,45.783],[13.548,45.793],[13.538,45.791],[13.539,45.787],[13.531,45.787],[13.538,45.783],[13.528,45.772]]},"properties":{"COD_RIP":2,"COD_REG":6,"COD_PROV":31,"COD_CM":0,"COD_UTS":31,"PRO_COM":31012,"COMUNE":"Monfalcone","SHAPE_Leng":24396.755456}},
{"type":"Feature","geometry":{"type":"LineString","coordinates":[[13.528,45.772],[13.526,45.771],[13.521,45.763],[13.521,45.757],[13.523,45.756],[13.521,45.752],[13.526,45.748],[13.517,45.744],[13.526,45.737],[13.533,45.738],[13.541,45.733],[13.549,45.731],[13.555,45.728],[13.554,45.726]]},"properties":{"COD_RIP":2,"COD_REG":6,"COD_PROV":31,"COD_CM":0,"COD_UTS":31,"PRO_COM":31023,"COMUNE":"Staranzano","SHAPE_Leng":10239.7477118}},
{"type":"Feature","geometry":{"type":"LineString","coordinates":[[13.668,45.742],[13.643,45.756],[13.636,45.763],[13.63,45.771],[13.622,45.769],[13.618,45.771],[13.608,45.772],[13.604,45.771],[13.596,45.775],[13.589,45.777],[13.587,45.78],[13.581,45.782]]},"properties":{"COD_RIP":2,"COD_REG":6,"COD_PROV":32,"COD_CM":0,"COD_UTS":32,"PRO_COM":32001,"COMUNE":"Duino Aurisina","SHAPE_Leng":12136.1394665}},
{"type":"Feature","geometry":{"type":"LineString","coordinates":[[13.723,45.595],[13.721,45.598],[13.719,45.606],[13.727,45.606],[13.733,45.61],[13.737,45.611],[13.742,45.609],[13.751,45.608],[13.757,45.608],[13.775,45.604],[13.778,45.601],[13.783,45.599],[13.797,45.604],[13.797,45.607],[13.805,45.609],[13.807,45.607]]},"properties":{"COD_RIP":2,"COD_REG":6,"COD_PROV":32,"COD_CM":0,"COD_UTS":32,"PRO_COM":32003,"COMUNE":"Muggia","SHAPE_Leng":17605.3435597}},
{"type":"Feature","geometry":{"type":"LineString","coordinates":[[13.807,45.607],[13.805,45.61],[13.786,45.614],[13.778,45.611],[13.774,45.613],[13.782,45.615],[13.779,45.617],[13.776,45.622],[13.772,45.625],[13.776,45.627],[13.774,45.63],[13.778,45.631],[13.774,45.636],[13.766,45.636],[13.766,45.631],[13.757,45.628],[13.755,45.631],[13.763,45.633],[13.758,45.636],[13.75,45.636],[13.748,45.645],[13.754,45.648],[13.752,45.65],[13.756,45.65],[13.758,45.646],[13.769,45.653],[13.765,45.66],[13.76,45.664],[13.756,45.674],[13.752,45.676],[13.754,45.679],[13.746,45.687],[13.733,45.696],[13.722,45.701],[13.713,45.702],[13.711,45.705],[13.714,45.708],[13.712,45.71],[13.694,45.723],[13.692,45.725],[13.682,45.732],[13.677,45.737],[13.668,45.742]]},"properties":{"COD_RIP":2,"COD_REG":6,"COD_PROV":32,"COD_CM":0,"COD_UTS":32,"PRO_COM":32006,"COMUNE":"Trieste","SHAPE_Leng":56125.7758923}}
]}